ORBCOMM FM20            
1 25416U 98046D   25154.56345325  .00001120  00000+0  42004-3 0  9991
2 25416  44.9939 245.7889 0002733 227.9204 132.1412 14.37193567402301
ORBCOMM FM15            
1 25418U 98046F   25154.54830227  .00001517  00000+0  53767-3 0  9999
2 25418  44.9965 242.7145 0006181 231.6727 128.3566 14.38533522402281
ORBCOMM FM13            
1 25420U 98046H   25154.53288034  .00001331  00000+0  48587-3 0  9992
2 25420  44.9972 248.9079 0006893 215.2351 144.8042 14.37652538402401
ORBCOMM FM21            
1 25475U 98053A   25154.53619443  .00001403  00000+0  51305-3 0  9994
2 25475  45.0095 334.1392 0001991 153.1410 206.9541 14.37332354395614
ORBCOMM FM23            
1 25477U 98053C   25154.53865073  .00001400  00000+0  51005-3 0  9992
2 25477  45.0093 336.2699 0002994 149.6630 210.4391 14.37510218395749
